XRISM                   
1 57800U 23137A   26095.31685054  .00006668  00000+0  37480-3 0  9990
2 57800  31.0012 111.3941 0007824 306.0860  53.9053 15.11832006141821
ACS3                    
1 59588U 24077B   26095.41527449  .00048177  00000+0  37366-1 0  9995
2 59588  97.1947  30.5218 0073305  16.7916 343.5651 13.91008517 97919
HTV-X1                  
1 66174U 25241A   26095.51741982  .00006691  00000+0  22107-3 0  9993
2 66174  51.6363 303.7411 0007379 276.3697  83.6444 15.32548989 25050
SZ-21 MODULE            
1 66515U 25246C   26095.22396600  .00051413  00000+0  40162-3 0  9991
2 66515  41.4750  39.7632 0003444 230.9448 129.1088 15.70779178 22242
