CCSDS_OMM_VERS = 2.0
CREATION_DATE  = 
ORIGINATOR     = 

OBJECT_NAME    = XRISM
OBJECT_ID      = 2023-137A
CENTER_NAME    = EARTH
REF_FRAME      = TEME
TIME_SYSTEM    = UTC
MEAN_ELEMENT_THEORY = SGP/SGP4

EPOCH          = 2026-04-05T07:36:15.886656
MEAN_MOTION    = 15.11832006
ECCENTRICITY   = .0007824
INCLINATION    = 31.0012
RA_OF_ASC_NODE = 111.3941
ARG_OF_PERICENTER = 306.0860
MEAN_ANOMALY   = 53.9053

EPHEMERIS_TYPE = 0
CLASSIFICATION_TYPE = U
NORAD_CAT_ID   = 57800
ELEMENT_SET_NO = 999
REV_AT_EPOCH   = 14182
BSTAR          = .3748E-3
MEAN_MOTION_DOT = .6668E-4
MEAN_MOTION_DDOT = 0

CCSDS_OMM_VERS = 2.0
CREATION_DATE  = 
ORIGINATOR     = 

OBJECT_NAME    = ACS3
OBJECT_ID      = 2024-077B
CENTER_NAME    = EARTH
REF_FRAME      = TEME
TIME_SYSTEM    = UTC
MEAN_ELEMENT_THEORY = SGP/SGP4

EPOCH          = 2026-04-05T09:57:59.715936
MEAN_MOTION    = 13.91008517
ECCENTRICITY   = .0073305
INCLINATION    = 97.1947
RA_OF_ASC_NODE = 30.5218
ARG_OF_PERICENTER = 16.7916
MEAN_ANOMALY   = 343.5651

EPHEMERIS_TYPE = 0
CLASSIFICATION_TYPE = U
NORAD_CAT_ID   = 59588
ELEMENT_SET_NO = 999
REV_AT_EPOCH   = 9791
BSTAR          = .37366E-1
MEAN_MOTION_DOT = .48177E-3
MEAN_MOTION_DDOT = 0

CCSDS_OMM_VERS = 2.0
CREATION_DATE  = 
ORIGINATOR     = 

OBJECT_NAME    = HTV-X1
OBJECT_ID      = 2025-241A
CENTER_NAME    = EARTH
REF_FRAME      = TEME
TIME_SYSTEM    = UTC
MEAN_ELEMENT_THEORY = SGP/SGP4

EPOCH          = 2026-04-05T12:25:05.072448
MEAN_MOTION    = 15.32548989
ECCENTRICITY   = .0007379
INCLINATION    = 51.6363
RA_OF_ASC_NODE = 303.7411
ARG_OF_PERICENTER = 276.3697
MEAN_ANOMALY   = 83.6444

EPHEMERIS_TYPE = 0
CLASSIFICATION_TYPE = U
NORAD_CAT_ID   = 66174
ELEMENT_SET_NO = 999
REV_AT_EPOCH   = 2505
BSTAR          = .22107E-3
MEAN_MOTION_DOT = .6691E-4
MEAN_MOTION_DDOT = 0

CCSDS_OMM_VERS = 2.0
CREATION_DATE  = 
ORIGINATOR     = 

OBJECT_NAME    = SZ-21 MODULE
OBJECT_ID      = 2025-246C
CENTER_NAME    = EARTH
REF_FRAME      = TEME
TIME_SYSTEM    = UTC
MEAN_ELEMENT_THEORY = SGP/SGP4

EPOCH          = 2026-04-05T05:22:30.662400
MEAN_MOTION    = 15.70779178
ECCENTRICITY   = .0003444
INCLINATION    = 41.4750
RA_OF_ASC_NODE = 39.7632
ARG_OF_PERICENTER = 230.9448
MEAN_ANOMALY   = 129.1088

EPHEMERIS_TYPE = 0
CLASSIFICATION_TYPE = U
NORAD_CAT_ID   = 66515
ELEMENT_SET_NO = 999
REV_AT_EPOCH   = 2224
BSTAR          = .40162E-3
MEAN_MOTION_DOT = .51413E-3
MEAN_MOTION_DDOT = 0

